ONEWEB-0558             
1 56059U 23043P   26138.01413177 -.00000002  00000+0 -35752-4 0  9990
2 56059  87.9248 249.9828 0001639 106.4439 253.6876 13.21816780154254
ONEWEB-0559             
1 56060U 23043Q   26138.22944892  .00000040  00000+0  64281-4 0  9997
2 56060  87.9252 249.9341 0001761  97.5922 262.5412 13.21826245154290
ONEWEB-0566             
1 56061U 23043R   26137.76854907 -.00000025  00000+0 -92011-4 0  9990
2 56061  87.9249 250.0244 0001659  96.9340 263.1982 13.21824972154211
ONEWEB-0568             
1 56062U 23043S   26137.99212330 -.00000227  00000+0 -62871-3 0  9998
2 56062  87.9104 234.7664 0002142 108.6593 251.4771 13.16594249155005
ONEWEB-0574             
1 56063U 23043T   26138.06460505  .00000032  00000+0  44931-4 0  9997
2 56063  87.9259 249.9655 0002186 100.7927 259.3453 13.21825801154298
ONEWEB-0575             
1 56064U 23043U   26138.21379079 -.00000016  00000+0 -75214-4 0  9992
2 56064  87.9104 234.7188 0002479 102.9661 257.1746 13.16596231155024
ONEWEB-0576             
1 56065U 23043V   26138.19480113  .00000068  00000+0  14497-3 0  9992
2 56065  87.9107 234.7295 0002262 102.4492 257.6892 13.16595125155011
ONEWEB-0577             
1 56066U 23043W   26138.20112672  .00000084  00000+0  18690-3 0  9994
2 56066  87.9107 234.7261 0002803  98.1067 262.0382 13.16595822155046
ONEWEB-0578             
1 56067U 23043X   26138.05115124  .00000088  00000+0  18223-3 0  9999
2 56067  87.9254 249.9683 0002104 108.6550 251.4813 13.21824962154253
ONEWEB-0579             
1 56068U 23043Y   26137.73995216  .00000005  00000+0 -20519-4 0  9994
2 56068  87.9255 250.0256 0001887  92.7376 267.3974 13.21824427154227
ONEWEB-0581             
1 56069U 23043Z   26138.20746729  .00000040  00000+0  71691-4 0  9996
2 56069  87.9107 234.7363 0002570  97.1278 263.0145 13.16595188155016
ONEWEB-0609             
1 56070U 23043AA  26138.06266645 -.00000099  00000+0 -29696-3 0  9999
2 56070  87.8980 265.2165 0001808 101.1449 258.9885 13.15546761152477
ONEWEB-0613             
1 56071U 23043AB  26137.75606765 -.00000144  00000+0 -41573-3 0  9995
2 56071  87.8983 265.2897 0001671  93.8491 266.2831 13.15545558152437
ONEWEB-0630             
1 56072U 23043AC  26138.05555280  .00000040  00000+0  72699-4 0  9992
2 56072  87.8986 265.2007 0001712  93.9903 266.1423 13.15549019152464
ONEWEB-0632             
1 56073U 23043AD  26138.05079494  .00000133  00000+0  31876-3 0  9995
2 56073  87.8983 265.2198 0002020  97.6750 262.4610 13.15549278152461
ONEWEB-0633             
1 56074U 23043AE  26138.04445176  .00000048  00000+0  94502-4 0  9990
2 56074  87.8991 265.1942 0001470  94.8968 265.2331 13.15548659152446
