[{"OBJECT_NAME":"ONEWEB-0558","OBJECT_ID":"2023-043P","EPOCH":"2026-05-18T00:20:20.984928","MEAN_MOTION":13.2181678,"ECCENTRICITY":0.0001639,"INCLINATION":87.9248,"RA_OF_ASC_NODE":249.9828,"ARG_OF_PERICENTER":106.4439,"MEAN_ANOMALY":253.6876,"EPHEMERIS_TYPE":0,"CLASSIFICATION_TYPE":"U","NORAD_CAT_ID":56059,"ELEMENT_SET_NO":999,"REV_AT_EPOCH":15425,"BSTAR":-3.5752e-05,"MEAN_MOTION_DOT":-2e-08,"MEAN_MOTION_DDOT":0.0},{"OBJECT_NAME":"ONEWEB-0559","OBJECT_ID":"2023-043Q","EPOCH":"2026-05-18T05:30:24.386688","MEAN_MOTION":13.21826245,"ECCENTRICITY":0.0001761,"INCLINATION":87.9252,"RA_OF_ASC_NODE":249.9341,"ARG_OF_PERICENTER":97.5922,"MEAN_ANOMALY":262.5412,"EPHEMERIS_TYPE":0,"CLASSIFICATION_TYPE":"U","NORAD_CAT_ID":56060,"ELEMENT_SET_NO":999,"REV_AT_EPOCH":15429,"BSTAR":6.4281e-05,"MEAN_MOTION_DOT":4e-07,"MEAN_MOTION_DDOT":0.0},{"OBJECT_NAME":"ONEWEB-0566","OBJECT_ID":"2023-043R","EPOCH":"2026-05-17T18:26:42.639648","MEAN_MOTION":13.21824972,"ECCENTRICITY":0.0001659,"INCLINATION":87.9249,"RA_OF_ASC_NODE":250.0244,"ARG_OF_PERICENTER":96.934,"MEAN_ANOMALY":263.1982,"EPHEMERIS_TYPE":0,"CLASSIFICATION_TYPE":"U","NORAD_CAT_ID":56061,"ELEMENT_SET_NO":999,"REV_AT_EPOCH":15421,"BSTAR":-9.2011e-05,"MEAN_MOTION_DOT":-2.5e-07,"MEAN_MOTION_DDOT":0.0},{"OBJECT_NAME":"ONEWEB-0568","OBJECT_ID":"2023-043S","EPOCH":"2026-05-17T23:48:39.453120","MEAN_MOTION":13.16594249,"ECCENTRICITY":0.0002142,"INCLINATION":87.9104,"RA_OF_ASC_NODE":234.7664,"ARG_OF_PERICENTER":108.6593,"MEAN_ANOMALY":251.4771,"EPHEMERIS_TYPE":0,"CLASSIFICATION_TYPE":"U","NORAD_CAT_ID":56062,"ELEMENT_SET_NO":999,"REV_AT_EPOCH":15500,"BSTAR":-0.00062871,"MEAN_MOTION_DOT":-2.27e-06,"MEAN_MOTION_DDOT":0.0},{"OBJECT_NAME":"ONEWEB-0574","OBJECT_ID":"2023-043T","EPOCH":"2026-05-18T01:33:01.876320","MEAN_MOTION":13.21825801,"ECCENTRICITY":0.0002186,"INCLINATION":87.9259,"RA_OF_ASC_NODE":249.9655,"ARG_OF_PERICENTER":100.7927,"MEAN_ANOMALY":259.3453,"EPHEMERIS_TYPE":0,"CLASSIFICATION_TYPE":"U","NORAD_CAT_ID":56063,"ELEMENT_SET_NO":999,"REV_AT_EPOCH":15429,"BSTAR":4.4931e-05,"MEAN_MOTION_DOT":3.2e-07,"MEAN_MOTION_DDOT":0.0},{"OBJECT_NAME":"ONEWEB-0575","OBJECT_ID":"2023-043U","EPOCH":"2026-05-18T05:07:51.524256","MEAN_MOTION":13.16596231,"ECCENTRICITY":0.0002479,"INCLINATION":87.9104,"RA_OF_ASC_NODE":234.7188,"ARG_OF_PERICENTER":102.9661,"MEAN_ANOMALY":257.1746,"EPHEMERIS_TYPE":0,"CLASSIFICATION_TYPE":"U","NORAD_CAT_ID":56064,"ELEMENT_SET_NO":999,"REV_AT_EPOCH":15502,"BSTAR":-7.5214e-05,"MEAN_MOTION_DOT":-1.6e-07,"MEAN_MOTION_DDOT":0.0},{"OBJECT_NAME":"ONEWEB-0576","OBJECT_ID":"2023-043V","EPOCH":"2026-05-18T04:40:30.817632","MEAN_MOTION":13.16595125,"ECCENTRICITY":0.0002262,"INCLINATION":87.9107,"RA_OF_ASC_NODE":234.7295,"ARG_OF_PERICENTER":102.4492,"MEAN_ANOMALY":257.6892,"EPHEMERIS_TYPE":0,"CLASSIFICATION_TYPE":"U","NORAD_CAT_ID":56065,"ELEMENT_SET_NO":999,"REV_AT_EPOCH":15501,"BSTAR":0.00014497,"MEAN_MOTION_DOT":6.8e-07,"MEAN_MOTION_DDOT":0.0},{"OBJECT_NAME":"ONEWEB-0577","OBJECT_ID":"2023-043W","EPOCH":"2026-05-18T04:49:37.348608","MEAN_MOTION":13.16595822,"ECCENTRICITY":0.0002803,"INCLINATION":87.9107,"RA_OF_ASC_NODE":234.7261,"ARG_OF_PERICENTER":98.1067,"MEAN_ANOMALY":262.0382,"EPHEMERIS_TYPE":0,"CLASSIFICATION_TYPE":"U","NORAD_CAT_ID":56066,"ELEMENT_SET_NO":999,"REV_AT_EPOCH":15504,"BSTAR":0.00018690000000000002,"MEAN_MOTION_DOT":8.4e-07,"MEAN_MOTION_DDOT":0.0},{"OBJECT_NAME":"ONEWEB-0578","OBJECT_ID":"2023-043X","EPOCH":"2026-05-18T01:13:39.467136","MEAN_MOTION":13.21824962,"ECCENTRICITY":0.0002104,"INCLINATION":87.9254,"RA_OF_ASC_NODE":249.9683,"ARG_OF_PERICENTER":108.655,"MEAN_ANOMALY":251.4813,"EPHEMERIS_TYPE":0,"CLASSIFICATION_TYPE":"U","NORAD_CAT_ID":56067,"ELEMENT_SET_NO":999,"REV_AT_EPOCH":15425,"BSTAR":0.00018223,"MEAN_MOTION_DOT":8.8e-07,"MEAN_MOTION_DDOT":0.0},{"OBJECT_NAME":"ONEWEB-0579","OBJECT_ID":"2023-043Y","EPOCH":"2026-05-17T17:45:31.866624","MEAN_MOTION":13.21824427,"ECCENTRICITY":0.0001887,"INCLINATION":87.9255,"RA_OF_ASC_NODE":250.0256,"ARG_OF_PERICENTER":92.7376,"MEAN_ANOMALY":267.3974,"EPHEMERIS_TYPE":0,"CLASSIFICATION_TYPE":"U","NORAD_CAT_ID":56068,"ELEMENT_SET_NO":999,"REV_AT_EPOCH":15422,"BSTAR":-2.0519e-05,"MEAN_MOTION_DOT":5e-08,"MEAN_MOTION_DDOT":0.0},{"OBJECT_NAME":"ONEWEB-0581","OBJECT_ID":"2023-043Z","EPOCH":"2026-05-18T04:58:45.173856","MEAN_MOTION":13.16595188,"ECCENTRICITY":0.000257,"INCLINATION":87.9107,"RA_OF_ASC_NODE":234.7363,"ARG_OF_PERICENTER":97.1278,"MEAN_ANOMALY":263.0145,"EPHEMERIS_TYPE":0,"CLASSIFICATION_TYPE":"U","NORAD_CAT_ID":56069,"ELEMENT_SET_NO":999,"REV_AT_EPOCH":15501,"BSTAR":7.1691e-05,"MEAN_MOTION_DOT":4e-07,"MEAN_MOTION_DDOT":0.0},{"OBJECT_NAME":"ONEWEB-0609","OBJECT_ID":"2023-043AA","EPOCH":"2026-05-18T01:30:14.381280","MEAN_MOTION":13.15546761,"ECCENTRICITY":0.0001808,"INCLINATION":87.898,"RA_OF_ASC_NODE":265.2165,"ARG_OF_PERICENTER":101.1449,"MEAN_ANOMALY":258.9885,"EPHEMERIS_TYPE":0,"CLASSIFICATION_TYPE":"U","NORAD_CAT_ID":56070,"ELEMENT_SET_NO":999,"REV_AT_EPOCH":15247,"BSTAR":-0.00029696000000000003,"MEAN_MOTION_DOT":-9.9e-07,"MEAN_MOTION_DDOT":0.0},{"OBJECT_NAME":"ONEWEB-0613","OBJECT_ID":"2023-043AB","EPOCH":"2026-05-17T18:08:44.244960","MEAN_MOTION":13.15545558,"ECCENTRICITY":0.0001671,"INCLINATION":87.8983,"RA_OF_ASC_NODE":265.2897,"ARG_OF_PERICENTER":93.8491,"MEAN_ANOMALY":266.2831,"EPHEMERIS_TYPE":0,"CLASSIFICATION_TYPE":"U","NORAD_CAT_ID":56071,"ELEMENT_SET_NO":999,"REV_AT_EPOCH":15243,"BSTAR":-0.00041573,"MEAN_MOTION_DOT":-1.44e-06,"MEAN_MOTION_DDOT":0.0},{"OBJECT_NAME":"ONEWEB-0630","OBJECT_ID":"2023-043AC","EPOCH":"2026-05-18T01:19:59.761920","MEAN_MOTION":13.15549019,"ECCENTRICITY":0.0001712,"INCLINATION":87.8986,"RA_OF_ASC_NODE":265.2007,"ARG_OF_PERICENTER":93.9903,"MEAN_ANOMALY":266.1423,"EPHEMERIS_TYPE":0,"CLASSIFICATION_TYPE":"U","NORAD_CAT_ID":56072,"ELEMENT_SET_NO":999,"REV_AT_EPOCH":15246,"BSTAR":7.2699e-05,"MEAN_MOTION_DOT":4e-07,"MEAN_MOTION_DDOT":0.0},{"OBJECT_NAME":"ONEWEB-0632","OBJECT_ID":"2023-043AD","EPOCH":"2026-05-18T01:13:08.682816","MEAN_MOTION":13.15549278,"ECCENTRICITY":0.000202,"INCLINATION":87.8983,"RA_OF_ASC_NODE":265.2198,"ARG_OF_PERICENTER":97.675,"MEAN_ANOMALY":262.461,"EPHEMERIS_TYPE":0,"CLASSIFICATION_TYPE":"U","NORAD_CAT_ID":56073,"ELEMENT_SET_NO":999,"REV_AT_EPOCH":15246,"BSTAR":0.00031876,"MEAN_MOTION_DOT":1.33e-06,"MEAN_MOTION_DDOT":0.0},{"OBJECT_NAME":"ONEWEB-0633","OBJECT_ID":"2023-043AE","EPOCH":"2026-05-18T01:04:00.632064","MEAN_MOTION":13.15548659,"ECCENTRICITY":0.000147,"INCLINATION":87.8991,"RA_OF_ASC_NODE":265.1942,"ARG_OF_PERICENTER":94.8968,"MEAN_ANOMALY":265.2331,"EPHEMERIS_TYPE":0,"CLASSIFICATION_TYPE":"U","NORAD_CAT_ID":56074,"ELEMENT_SET_NO":999,"REV_AT_EPOCH":15244,"BSTAR":9.4502e-05,"MEAN_MOTION_DOT":4.8e-07,"MEAN_MOTION_DDOT":0.0}]